[{"OBJECT_NAME":"STARLINK-5500","OBJECT_ID":"2023-021G","EPOCH":"2026-03-09T17:27:52.068672","MEAN_MOTION":14.98333103,"ECCENTRICITY":0.00021815,"INCLINATION":70.0005,"RA_OF_ASC_NODE":204.3682,"ARG_OF_PERICENTER":274.385,"MEAN_ANOMALY":85.706,"EPHEMERIS_TYPE":0,"CLASSIFICATION_TYPE":"U","NORAD_CAT_ID":55634,"ELEMENT_SET_NO":999,"REV_AT_EPOCH":16829,"BSTAR":3.8882112e-5,"MEAN_MOTION_DOT":3.71e-6,"MEAN_MOTION_DDOT":0},{"OBJECT_NAME":"FENGYUN 1C DEB","OBJECT_ID":"1999-025CWT","EPOCH":"2026-03-07T12:20:18.865536","MEAN_MOTION":14.78969829,"ECCENTRICITY":0.00944747,"INCLINATION":98.6527,"RA_OF_ASC_NODE":273.8426,"ARG_OF_PERICENTER":72.7865,"MEAN_ANOMALY":288.3658,"EPHEMERIS_TYPE":0,"CLASSIFICATION_TYPE":"U","NORAD_CAT_ID":32245,"ELEMENT_SET_NO":999,"REV_AT_EPOCH":67358,"BSTAR":0.0016597334,"MEAN_MOTION_DOT":0.00013167,"MEAN_MOTION_DDOT":0}]
